{"type": "FeatureCollection", "features": [ {"type": "Feature", "properties": {"norad_id": 42741, "name": "EUTELSAT 172B", "group": "eutelsat", "lat": -0.0008763081110561234, "lon": -57.809980901120454, "alt_km": 35785.963749688795, "timestamp": "2025-12-04T03:47:54.225413+00:00", "meta": {"OBJECT_NAME": "EUTELSAT 172B", "OBJECT_ID": "2017-029B", "EPOCH": "2025-12-03T17:18:38.540160", "MEAN_MOTION": 1.00271292, "ECCENTRICITY": 1.91e-05, "INCLINATION": 0.0029, "RA_OF_ASC_NODE": 53.9145, "ARG_OF_PERICENTER": 175.2679, "MEAN_ANOMALY": 275.2829, "EPHEMERIS_TYPE": 0, "CLASSIFICATION_TYPE": "U", "NORAD_CAT_ID": 42741, "ELEMENT_SET_NO": 999, "REV_AT_EPOCH": 3177, "BSTAR": 0, "MEAN_MOTION_DOT": 1.2e-07, "MEAN_MOTION_DDOT": 0}, "tle": {"line1": "1 42741U 17029B   25337.72127940  .00000012  00000+0  00000+0 0  9990", "line2": "2 42741   0.0029  53.9145 0000191 175.2679 275.2829  1.00271292 31773"}}, "geometry": {"type": "Point", "coordinates": [-57.809980901120454, -0.0008763081110561234]}}, {"type": "Feature", "properties": {"norad_id": 44334, "name": "EUTELSAT 7C", "group": "eutelsat", "lat": -0.052372451569618936, "lon": 137.13384612925205, "alt_km": 35789.04068129843, "timestamp": "2025-12-04T03:47:54.225425+00:00", "meta": {"OBJECT_NAME": "EUTELSAT 7C", "OBJECT_ID": "2019-034B", "EPOCH": "2025-12-03T17:12:48.873312", "MEAN_MOTION": 1.00269345, "ECCENTRICITY": 0.0003433, "INCLINATION": 0.0761, "RA_OF_ASC_NODE": 181.0354, "ARG_OF_PERICENTER": 55.0519, "MEAN_ANOMALY": 101.9051, "EPHEMERIS_TYPE": 0, "CLASSIFICATION_TYPE": "U", "NORAD_CAT_ID": 44334, "ELEMENT_SET_NO": 999, "REV_AT_EPOCH": 487, "BSTAR": 0, "MEAN_MOTION_DOT": 6.6e-07, "MEAN_MOTION_DDOT": 0}, "tle": {"line1": "1 44334U 19034B   25337.71723233  .00000066  00000+0  00000+0 0  9993", "line2": "2 44334   0.0761 181.0354 0003433  55.0519 101.9051  1.00269345  4870"}}, "geometry": {"type": "Point", "coordinates": [137.13384612925205, -0.052372451569618936]}}, {"type": "Feature", "properties": {"norad_id": 44624, "name": "EUTELSAT 5 WEST B", "group": "eutelsat", "lat": 0.03593610213449018, "lon": 125.17545026808862, "alt_km": 35795.64961008157, "timestamp": "2025-12-04T03:47:54.225436+00:00", "meta": {"OBJECT_NAME": "EUTELSAT 5 WEST B", "OBJECT_ID": "2019-067A", "EPOCH": "2025-12-03T17:09:26.693856", "MEAN_MOTION": 1.00272793, "ECCENTRICITY": 0.0003711, "INCLINATION": 0.0708, "RA_OF_ASC_NODE": 328.8657, "ARG_OF_PERICENTER": 285.1903, "MEAN_ANOMALY": 71.1223, "EPHEMERIS_TYPE": 0, "CLASSIFICATION_TYPE": "U", "NORAD_CAT_ID": 44624, "ELEMENT_SET_NO": 999, "REV_AT_EPOCH": 2247, "BSTAR": 0, "MEAN_MOTION_DOT": -2.4e-07, "MEAN_MOTION_DDOT": 0}, "tle": {"line1": "1 44624U 19067A   25337.71489229 -.00000024  00000+0  00000+0 0  9990", "line2": "2 44624   0.0708 328.8657 0003711 285.1903  71.1223  1.00272793 22478"}}, "geometry": {"type": "Point", "coordinates": [125.17545026808862, 0.03593610213449018]}}, {"type": "Feature", "properties": {"norad_id": 45027, "name": "EUTELSAT KONNECT", "group": "eutelsat", "lat": 0.04670309489948081, "lon": 137.36106443385663, "alt_km": 35793.31672017839, "timestamp": "2025-12-04T03:47:54.225460+00:00", "meta": {"OBJECT_NAME": "EUTELSAT KONNECT", "OBJECT_ID": "2020-005B", "EPOCH": "2025-12-03T17:12:48.873312", "MEAN_MOTION": 1.0026857, "ECCENTRICITY": 0.0001782, "INCLINATION": 0.069, "RA_OF_ASC_NODE": 99.0949, "ARG_OF_PERICENTER": 186.3807, "MEAN_ANOMALY": 52.717, "EPHEMERIS_TYPE": 0, "CLASSIFICATION_TYPE": "U", "NORAD_CAT_ID": 45027, "ELEMENT_SET_NO": 999, "REV_AT_EPOCH": 2236, "BSTAR": 0, "MEAN_MOTION_DOT": 6.7e-07, "MEAN_MOTION_DDOT": 0}, "tle": {"line1": "1 45027U 20005B   25337.71723233  .00000067  00000+0  00000+0 0  9994", "line2": "2 45027   0.0690  99.0949 0001782 186.3807  52.7170  1.00268570 22360"}}, "geometry": {"type": "Point", "coordinates": [137.36106443385663, 0.04670309489948081]}}, {"type": "Feature", "properties": {"norad_id": 49056, "name": "EUTELSAT QUANTUM", "group": "eutelsat", "lat": -0.002820085950177664, "lon": 177.85709399115137, "alt_km": 35785.5414948874, "timestamp": "2025-12-04T03:47:54.225474+00:00", "meta": {"OBJECT_NAME": "EUTELSAT QUANTUM", "OBJECT_ID": "2021-069B", "EPOCH": "2025-12-03T17:24:25.259040", "MEAN_MOTION": 1.00271867, "ECCENTRICITY": 0.0003792, "INCLINATION": 0.0191, "RA_OF_ASC_NODE": 18.2119, "ARG_OF_PERICENTER": 248.1481, "MEAN_ANOMALY": 115.2657, "EPHEMERIS_TYPE": 0, "CLASSIFICATION_TYPE": "U", "NORAD_CAT_ID": 49056, "ELEMENT_SET_NO": 999, "REV_AT_EPOCH": 1596, "BSTAR": 0, "MEAN_MOTION_DOT": 1.43e-06, "MEAN_MOTION_DDOT": 0}, "tle": {"line1": "1 49056U 21069B   25337.72529235  .00000143  00000+0  00000+0 0  9993", "line2": "2 49056   0.0191  18.2119 0003792 248.1481 115.2657  1.00271867 15968"}}, "geometry": {"type": "Point", "coordinates": [177.85709399115137, -0.002820085950177664]}}, {"type": "Feature", "properties": {"norad_id": 53765, "name": "EUTELSAT KONNECT VHTS", "group": "eutelsat", "lat": 0.036510570606198084, "lon": 132.84123904810463, "alt_km": 35788.356358425364, "timestamp": "2025-12-04T03:47:54.225486+00:00", "meta": {"OBJECT_NAME": "EUTELSAT KONNECT VHTS", "OBJECT_ID": "2022-110A", "EPOCH": "2025-12-03T05:12:28.480320", "MEAN_MOTION": 1.00269007, "ECCENTRICITY": 0.0002764, "INCLINATION": 0.0603, "RA_OF_ASC_NODE": 107.1016, "ARG_OF_PERICENTER": 123.1613, "MEAN_ANOMALY": 282.8564, "EPHEMERIS_TYPE": 0, "CLASSIFICATION_TYPE": "U", "NORAD_CAT_ID": 53765, "ELEMENT_SET_NO": 999, "REV_AT_EPOCH": 486, "BSTAR": 0, "MEAN_MOTION_DOT": 3.6e-07, "MEAN_MOTION_DDOT": 0}, "tle": {"line1": "1 53765U 22110A   25337.21699630  .00000036  00000+0  00000+0 0  9995", "line2": "2 53765   0.0603 107.1016 0002764 123.1613 282.8564  1.00269007  4867"}}, "geometry": {"type": "Point", "coordinates": [132.84123904810463, 0.036510570606198084]}}, {"type": "Feature", "properties": {"norad_id": 54048, "name": "EUTELSAT HOTBIRD 13F", "group": "eutelsat", "lat": -0.032390797860066725, "lon": 143.2070390471956, "alt_km": 35792.88306791731, "timestamp": "2025-12-04T03:47:54.225498+00:00", "meta": {"OBJECT_NAME": "EUTELSAT HOTBIRD 13F", "OBJECT_ID": "2022-134A", "EPOCH": "2025-12-02T19:57:38.448864", "MEAN_MOTION": 1.00271371, "ECCENTRICITY": 0.00019176, "INCLINATION": 0.0542, "RA_OF_ASC_NODE": 289.0481, "ARG_OF_PERICENTER": 66.1354, "MEAN_ANOMALY": 29.1621, "EPHEMERIS_TYPE": 0, "CLASSIFICATION_TYPE": "U", "NORAD_CAT_ID": 54048, "ELEMENT_SET_NO": 999, "REV_AT_EPOCH": 1140, "BSTAR": 0, "MEAN_MOTION_DOT": 1.07e-06, "MEAN_MOTION_DDOT": 0}, "tle": {"line1": "1 54048U 22134A   25336.83169501  .00000107  00000+0  00000+0 0  9991", "line2": "2 54048   0.0542 289.0481 0001917  66.1354  29.1621  1.00271371 11408"}}, "geometry": {"type": "Point", "coordinates": [143.2070390471956, -0.032390797860066725]}}, {"type": "Feature", "properties": {"norad_id": 54225, "name": "EUTELSAT HOTBIRD 13G", "group": "eutelsat", "lat": -0.0413114396808447, "lon": 143.1726616123858, "alt_km": 35779.565464727064, "timestamp": "2025-12-04T03:47:54.225510+00:00", "meta": {"OBJECT_NAME": "EUTELSAT HOTBIRD 13G", "OBJECT_ID": "2022-146A", "EPOCH": "2025-12-03T00:07:14.496096", "MEAN_MOTION": 1.00271219, "ECCENTRICITY": 0.00021047, "INCLINATION": 0.0475, "RA_OF_ASC_NODE": 238.4149, "ARG_OF_PERICENTER": 306.4933, "MEAN_ANOMALY": 262.0024, "EPHEMERIS_TYPE": 0, "CLASSIFICATION_TYPE": "U", "NORAD_CAT_ID": 54225, "ELEMENT_SET_NO": 999, "REV_AT_EPOCH": 549, "BSTAR": 0, "MEAN_MOTION_DOT": 1.07e-06, "MEAN_MOTION_DDOT": 0}, "tle": {"line1": "1 54225U 22146A   25337.00502889  .00000107  00000+0  00000+0 0  9991", "line2": "2 54225   0.0475 238.4149 0002104 306.4933 262.0024  1.00271219  5499"}}, "geometry": {"type": "Point", "coordinates": [143.1726616123858, -0.0413114396808447]}}, {"type": "Feature", "properties": {"norad_id": 54259, "name": "EUTELSAT 10B", "group": "eutelsat", "lat": 0.04037352599586873, "lon": 140.18760537629177, "alt_km": 35783.43060604112, "timestamp": "2025-12-04T03:47:54.225522+00:00", "meta": {"OBJECT_NAME": "EUTELSAT 10B", "OBJECT_ID": "2022-157A", "EPOCH": "2025-12-03T04:33:38.732832", "MEAN_MOTION": 1.00268425, "ECCENTRICITY": 0.0001038, "INCLINATION": 0.0608, "RA_OF_ASC_NODE": 103.578, "ARG_OF_PERICENTER": 72.8343, "MEAN_ANOMALY": 334.2971, "EPHEMERIS_TYPE": 0, "CLASSIFICATION_TYPE": "U", "NORAD_CAT_ID": 54259, "ELEMENT_SET_NO": 999, "REV_AT_EPOCH": 1106, "BSTAR": 0, "MEAN_MOTION_DOT": 8.7e-07, "MEAN_MOTION_DDOT": 0}, "tle": {"line1": "1 54259U 22157A   25337.19003163  .00000087  00000+0  00000+0 0  9998", "line2": "2 54259   0.0608 103.5780 0001038  72.8343 334.2971  1.00268425 11069"}}, "geometry": {"type": "Point", "coordinates": [140.18760537629177, 0.04037352599586873]}}, {"type": "Feature", "properties": {"norad_id": 59346, "name": "EUTELSAT 36D", "group": "eutelsat", "lat": -0.007547823747774378, "lon": 166.03350754813914, "alt_km": 35788.30156149657, "timestamp": "2025-12-04T03:47:54.225533+00:00", "meta": {"OBJECT_NAME": "EUTELSAT 36D", "OBJECT_ID": "2024-059A", "EPOCH": "2025-12-03T13:55:38.714880", "MEAN_MOTION": 1.00270882, "ECCENTRICITY": 6.6e-05, "INCLINATION": 0.0224, "RA_OF_ASC_NODE": 345.8589, "ARG_OF_PERICENTER": 317.7491, "MEAN_ANOMALY": 13.8207, "EPHEMERIS_TYPE": 0, "CLASSIFICATION_TYPE": "U", "NORAD_CAT_ID": 59346, "ELEMENT_SET_NO": 999, "REV_AT_EPOCH": 618, "BSTAR": 0, "MEAN_MOTION_DOT": 0, "MEAN_MOTION_DDOT": 0}, "tle": {"line1": "1 59346U 24059A   25337.58030920  .00000000  00000+0  00000+0 0  9992", "line2": "2 59346   0.0224 345.8589 0000660 317.7491  13.8207  1.00270882  6187"}}, "geometry": {"type": "Point", "coordinates": [166.03350754813914, -0.007547823747774378]}}]}